start=new Date('2021-10-27T00:00:00.000Z').valueOf();
sats=[{"MEAN_ANOMALY":"286.5489","RA_OF_ASC_NODE":"224.1210","TLE_LINE2":"2 47904  53.0549 224.1210 0001590  73.5675 286.5489 15.06387451 35833","OBJECT_NAME":"STARLINK-2364","SITE":"AFETR","MEAN_ELEMENT_THEORY":"SGP4","ECCENTRICITY":"0.00015900","CLASSIFICATION_TYPE":"U","EPOCH":"2021-10-26T04:22:12.208800","REV_AT_EPOCH":"3583","FILE":"3184921","MEAN_MOTION_DDOT":"0.0000000000000","INCLINATION":"53.0549","APOAPSIS":"548.353","ELEMENT_SET_NO":"999","COUNTRY_CODE":"US","DECAY_DATE":null,"OBJECT_TYPE":"PAYLOAD","CENTER_NAME":"EARTH","TLE_LINE1":"1 47904U 21021AW  21299.18208575 -.00000382  00000-0 -67300-5 0  9995","BSTAR":"-0.00000673000000","SEMIMAJOR_AXIS":"6925.387","PERIOD":"95.593","REF_FRAME":"TEME","MEAN_MOTION_DOT":"-0.00000382","MEAN_MOTION":"15.06387451","LAUNCH_DATE":"2021-03-14","RCS_SIZE":"LARGE","TIME_SYSTEM":"UTC","GP_ID":"188199008","ARG_OF_PERICENTER":"73.5675","OBJECT_ID":"2021-021AW","NORAD_CAT_ID":"47904","PERIAPSIS":"546.151","EPHEMERIS_TYPE":"0"},{"EPHEMERIS_TYPE":"0","PERIAPSIS":"546.048","GP_ID":"188200259","OBJECT_ID":"2021-021AX","ARG_OF_PERICENTER":"72.2632","NORAD_CAT_ID":"47905","TIME_SYSTEM":"UTC","RCS_SIZE":"LARGE","LAUNCH_DATE":"2021-03-14","PERIOD":"95.592","REF_FRAME":"TEME","MEAN_MOTION_DOT":"0.00000661","MEAN_MOTION":"15.06408515","DECAY_DATE":null,"COUNTRY_CODE":"US","CENTER_NAME":"EARTH","OBJECT_TYPE":"PAYLOAD","TLE_LINE1":"1 47905U 21021AX  21299.17839019  .00000661  00000-0  63280-4 0  9998","SEMIMAJOR_AXIS":"6925.322","BSTAR":"0.00006328000000","FILE":"3184921","MEAN_MOTION_DDOT":"0.0000000000000","REV_AT_EPOCH":"3596","INCLINATION":"53.0556","ELEMENT_SET_NO":"999","APOAPSIS":"548.327","TLE_LINE2":"2 47905  53.0556 224.1411 0001646  72.2632 287.8537 15.06408515 35963","OBJECT_NAME":"STARLINK-2365","EPOCH":"2021-10-26T04:16:52.912416","CLASSIFICATION_TYPE":"U","ECCENTRICITY":"0.00016460","MEAN_ELEMENT_THEORY":"SGP4","SITE":"AFETR","MEAN_ANOMALY":"287.8537","RA_OF_ASC_NODE":"224.1411"},{"ARG_OF_PERICENTER":"284.4163","OBJECT_ID":"2021-021AY","NORAD_CAT_ID":"47906","GP_ID":"188202423","PERIAPSIS":"349.041","EPHEMERIS_TYPE":"0","MEAN_MOTION":"15.71516757","MEAN_MOTION_DOT":"0.00027776","REF_FRAME":"TEME","PERIOD":"91.631","LAUNCH_DATE":"2021-03-14","TIME_SYSTEM":"UTC","RCS_SIZE":"LARGE","APOAPSIS":"360.086","ELEMENT_SET_NO":"999","MEAN_MOTION_DDOT":"0.0000000000000","FILE":"3185024","REV_AT_EPOCH":"3599","INCLINATION":"53.0498","SEMIMAJOR_AXIS":"6732.698","BSTAR":"0.00021614000000","TLE_LINE1":"1 47906U 21021AY  21299.40663662  .00027776  00000-0  21614-3 0  9994","OBJECT_TYPE":"PAYLOAD","CENTER_NAME":"EARTH","DECAY_DATE":null,"COUNTRY_CODE":"US","RA_OF_ASC_NODE":"180.9994","MEAN_ANOMALY":"75.5943","SITE":"AFETR","MEAN_ELEMENT_THEORY":"SGP4","CLASSIFICATION_TYPE":"U","ECCENTRICITY":"0.00082030","EPOCH":"2021-10-26T09:45:33.403968","OBJECT_NAME":"STARLINK-2366","TLE_LINE2":"2 47906  53.0498 180.9994 0008203 284.4163  75.5943 15.71516757 35992"},{"PERIOD":"95.592","REF_FRAME":"TEME","MEAN_MOTION_DOT":"0.00001817","MEAN_MOTION":"15.06407872","RCS_SIZE":"LARGE","TIME_SYSTEM":"UTC","LAUNCH_DATE":"2021-03-14","GP_ID":"188198758","ARG_OF_PERICENTER":"77.7689","OBJECT_ID":"2021-021AZ","NORAD_CAT_ID":"47907","EPHEMERIS_TYPE":"0","PERIAPSIS":"546.181","MEAN_ANOMALY":"282.3463","RA_OF_ASC_NODE":"243.8046","TLE_LINE2":"2 47907  53.0566 243.8046 0001456  77.7689 282.3463 15.06407872 35546","OBJECT_NAME":"STARLINK-2367","CLASSIFICATION_TYPE":"U","EPOCH":"2021-10-26T06:05:41.206560","ECCENTRICITY":"0.00014560","MEAN_ELEMENT_THEORY":"SGP4","SITE":"AFETR","REV_AT_EPOCH":"3554","FILE":"3184921","MEAN_MOTION_DDOT":"0.0000000000000","INCLINATION":"53.0566","ELEMENT_SET_NO":"999","APOAPSIS":"548.198","DECAY_DATE":null,"COUNTRY_CODE":"US","CENTER_NAME":"EARTH","OBJECT_TYPE":"PAYLOAD","TLE_LINE1":"1 47907U 21021AZ  21299.25394915  .00001817  00000-0  14082-3 0  9999","BSTAR":"0.00014082000000","SEMIMAJOR_AXIS":"6925.324"},{"REF_FRAME":"TEME","PERIOD":"95.592","MEAN_MOTION":"15.06401853","MEAN_MOTION_DOT":"0.00000262","LAUNCH_DATE":"2021-03-14","RCS_SIZE":"LARGE","TIME_SYSTEM":"UTC","GP_ID":"188199508","ARG_OF_PERICENTER":"71.4421","OBJECT_ID":"2021-021BA","NORAD_CAT_ID":"47908","PERIAPSIS":"546.119","EPHEMERIS_TYPE":"0","RA_OF_ASC_NODE":"243.4697","MEAN_ANOMALY":"288.6739","TLE_LINE2":"2 47908  53.0561 243.4697 0001573  71.4421 288.6739 15.06401853 35587","SITE":"AFETR","MEAN_ELEMENT_THEORY":"SGP4","CLASSIFICATION_TYPE":"U","ECCENTRICITY":"0.00015730","EPOCH":"2021-10-26T07:51:50.530752","OBJECT_NAME":"STARLINK-2368","REV_AT_EPOCH":"3558","FILE":"3184921","MEAN_MOTION_DDOT":"0.0000000000000","INCLINATION":"53.0561","APOAPSIS":"548.297","ELEMENT_SET_NO":"999","OBJECT_TYPE":"PAYLOAD","CENTER_NAME":"EARTH","DECAY_DATE":null,"COUNTRY_CODE":"US","SEMIMAJOR_AXIS":"6925.343","BSTAR":"0.00003648900000","TLE_LINE1":"1 47908U 21021BA  21299.32766818  .00000262  00000-0  36489-4 0  9992"},{"OBJECT_ID":"2021-021BB","ARG_OF_PERICENTER":"86.6056","NORAD_CAT_ID":"47909","GP_ID":"188199760","PERIAPSIS":"546.163","EPHEMERIS_TYPE":"0","MEAN_MOTION":"15.06395432","MEAN_MOTION_DOT":"0.00000802","PERIOD":"95.592","REF_FRAME":"TEME","LAUNCH_DATE":"2021-03-14","TIME_SYSTEM":"UTC","RCS_SIZE":"MEDIUM","APOAPSIS":"548.292","ELEMENT_SET_NO":"999","FILE":"3184921","MEAN_MOTION_DDOT":"0.0000000000000","REV_AT_EPOCH":"3588","INCLINATION":"53.0564","BSTAR":"0.00007274000000","SEMIMAJOR_AXIS":"6925.363","TLE_LINE1":"1 47909U 21021BB  21299.27699258  .00000802  00000-0  72740-4 0  9990","OBJECT_TYPE":"PAYLOAD","CENTER_NAME":"EARTH","COUNTRY_CODE":"US","DECAY_DATE":null,"RA_OF_ASC_NODE":"233.7013","MEAN_ANOMALY":"273.5109","MEAN_ELEMENT_THEORY":"SGP4","SITE":"AFETR","ECCENTRICITY":"0.00015370","CLASSIFICATION_TYPE":"U","EPOCH":"2021-10-26T06:38:52.158912","OBJECT_NAME":"STARLINK-2369","TLE_LINE2":"2 47909  53.0564 233.7013 0001537  86.6056 273.5109 15.06395432 35889"},{"BSTAR":"0.00001303800000","SEMIMAJOR_AXIS":"6925.351","TLE_LINE1":"1 47910U 21021BC  21299.11386845 -.00000087  00000-0  13038-4 0  9991","OBJECT_TYPE":"PAYLOAD","CENTER_NAME":"EARTH","DECAY_DATE":null,"COUNTRY_CODE":"US","APOAPSIS":"548.353","ELEMENT_SET_NO":"999","INCLINATION":"53.0552","FILE":"3184921","MEAN_MOTION_DDOT":"0.0000000000000","REV_AT_EPOCH":"3571","MEAN_ELEMENT_THEORY":"SGP4","SITE":"AFETR","CLASSIFICATION_TYPE":"U","ECCENTRICITY":"0.00016420","EPOCH":"2021-10-26T02:43:58.234080","OBJECT_NAME":"STARLINK-2370","TLE_LINE2":"2 47910  53.0552 234.4233 0001642  64.6980 295.4179 15.06399188 35713","RA_OF_ASC_NODE":"234.4233","MEAN_ANOMALY":"295.4179","PERIAPSIS":"546.079","EPHEMERIS_TYPE":"0","ARG_OF_PERICENTER":"64.6980","OBJECT_ID":"2021-021BC","NORAD_CAT_ID":"47910","GP_ID":"188200506","LAUNCH_DATE":"2021-03-14","TIME_SYSTEM":"UTC","RCS_SIZE":"LARGE","MEAN_MOTION":"15.06399188","MEAN_MOTION_DOT":"-0.00000087","PERIOD":"95.592","REF_FRAME":"TEME"},{"COUNTRY_CODE":"US","DECAY_DATE":null,"CENTER_NAME":"EARTH","OBJECT_TYPE":"PAYLOAD","TLE_LINE1":"1 47911U 21021BD  21299.30599564  .00000402  00000-0  45862-4 0  9997","SEMIMAJOR_AXIS":"6925.324","BSTAR":"0.00004586200000","FILE":"3184921","REV_AT_EPOCH":"3536","MEAN_MOTION_DDOT":"0.0000000000000","INCLINATION":"53.0566","ELEMENT_SET_NO":"999","APOAPSIS":"548.344","TLE_LINE2":"2 47911  53.0566 248.5750 0001668  81.3991 278.7187 15.06407973 35361","OBJECT_NAME":"STARLINK-2371","CLASSIFICATION_TYPE":"U","EPOCH":"2021-10-26T07:20:38.023296","ECCENTRICITY":"0.00016680","MEAN_ELEMENT_THEORY":"SGP4","SITE":"AFETR","MEAN_ANOMALY":"278.7187","RA_OF_ASC_NODE":"248.5750","EPHEMERIS_TYPE":"0","PERIAPSIS":"546.034","GP_ID":"188199258","ARG_OF_PERICENTER":"81.3991","OBJECT_ID":"2021-021BD","NORAD_CAT_ID":"47911","RCS_SIZE":"LARGE","TIME_SYSTEM":"UTC","LAUNCH_DATE":"2021-03-14","PERIOD":"95.592","REF_FRAME":"TEME","MEAN_MOTION_DOT":"0.00000402","MEAN_MOTION":"15.06407973"},{"MEAN_ANOMALY":"283.8277","RA_OF_ASC_NODE":"233.5703","OBJECT_NAME":"STARLINK-2372","EPOCH":"2021-10-26T07:21:19.962720","CLASSIFICATION_TYPE":"U","ECCENTRICITY":"0.00016530","SITE":"AFETR","MEAN_ELEMENT_THEORY":"SGP4","TLE_LINE2":"2 47912  53.0513 233.5703 0001653  76.2896 283.8277 15.06393890 35579","ELEMENT_SET_NO":"999","APOAPSIS":"548.377","REV_AT_EPOCH":"3557","FILE":"3184921","MEAN_MOTION_DDOT":"0.0000000000000","INCLINATION":"53.0513","TLE_LINE1":"1 47912U 21021BE  21299.30648105  .00000933  00000-0  81528-4 0  9992","SEMIMAJOR_AXIS":"6925.367","BSTAR":"0.00008152800000","COUNTRY_CODE":"US","DECAY_DATE":null,"CENTER_NAME":"EARTH","OBJECT_TYPE":"PAYLOAD","MEAN_MOTION_DOT":"0.00000933","MEAN_MOTION":"15.06393890","REF_FRAME":"TEME","PERIOD":"95.593","RCS_SIZE":"LARGE","TIME_SYSTEM":"UTC","LAUNCH_DATE":"2021-03-14","OBJECT_ID":"2021-021BE","ARG_OF_PERICENTER":"76.2896","NORAD_CAT_ID":"47912","GP_ID":"188199009","EPHEMERIS_TYPE":"0","PERIAPSIS":"546.088"},{"OBJECT_NAME":"STARLINK-2374","SITE":"AFETR","MEAN_ELEMENT_THEORY":"SGP4","ECCENTRICITY":"0.00016650","CLASSIFICATION_TYPE":"U","EPOCH":"2021-10-26T08:01:06.304800","TLE_LINE2":"2 47913  53.0570 243.4468 0001665  79.4493 280.6683 15.06395892 35112","MEAN_ANOMALY":"280.6683","RA_OF_ASC_NODE":"243.4468","TLE_LINE1":"1 47913U 21021BF  21299.33410075  .00000382  00000-0  44540-4 0  9990","SEMIMAJOR_AXIS":"6925.361","BSTAR":"0.00004454000000","DECAY_DATE":null,"COUNTRY_CODE":"US","OBJECT_TYPE":"PAYLOAD","CENTER_NAME":"EARTH","APOAPSIS":"548.379","ELEMENT_SET_NO":"999","FILE":"3184984","MEAN_MOTION_DDOT":"0.0000000000000","INCLINATION":"53.0570","REV_AT_EPOCH":"3511","LAUNCH_DATE":"2021-03-14","TIME_SYSTEM":"UTC","RCS_SIZE":"LARGE","MEAN_MOTION_DOT":"0.00000382","MEAN_MOTION":"15.06395892","PERIOD":"95.592","REF_FRAME":"TEME","PERIAPSIS":"546.073","EPHEMERIS_TYPE":"0","NORAD_CAT_ID":"47913","OBJECT_ID":"2021-021BF","ARG_OF_PERICENTER":"79.4493","GP_ID":"188201650"}];
